SALSAT                  
1 46495U 20068K   24214.89185159  .00009454  00000+0  52440-3 0  9992
2 46495  97.8184 175.3641 0014797 150.0363 210.1718 15.13901134211226
UVSQ-SAT                
1 47438U 21006AB  24214.71485034  .00094167  00000+0  14189-2 0  9991
2 47438  97.3218 276.0062 0004087  66.1641 294.0041 15.54463088195799
LEDSAT                  
1 49069U 21073D   24214.70381910  .00024363  00000+0  92521-3 0  9992
2 49069  97.4356 285.5785 0019774 123.2218 237.0920 15.26630577163398
XW-3 (CAS-9)            
1 50466U 21131B   24214.85581677  .00001034  00000+0  34413-3 0  9994
2 50466  98.5279 299.7142 0003984   7.2484 352.8761 14.39762839136572
TEVEL-3                 
1 50988U 22002E   24214.46855397  .02456360  91802-2  22349-2 0  9996
2 50988  97.3497 293.6456 0013169 259.5628 100.4175 16.14716927142215
TEVEL-8                 
1 50989U 22002F   24214.83398558  .02367168  75494-2  21499-2 0  9990
2 50989  97.3583 294.1300 0013967 260.0598  99.9112 16.14298925142266
TEVEL-1                 
1 51013U 22002AF  24214.82982221  .02234616  57484-2  20998-2 0  9997
2 51013  97.3607 293.8503 0014142 259.2318 100.7375 16.13330161142269
TEVEL-7                 
1 51062U 22002CG  24214.73828389  .03046478  23961-5  19483-2 0  9996
2 51062  97.3557 294.0385 0013891 262.4974  97.4736 16.17313079142257
TEVEL-4                 
1 51063U 22002CH  24214.83705850  .01786717  24814-2  21121-2 0  9997
2 51063  97.3623 293.9025 0013499 256.4903 103.4876 16.09005987142250
TEVEL-2                 
1 51069U 22002CP  24214.77400167  .02922843  23891-5  19677-2 0  9992
2 51069  97.3502 293.9589 0013997 261.2237  98.7465 16.16605723142267
GREENCUBE               
1 53106U 22080B   24214.10458479 -.00000003  00000+0  00000+0 0  9990
2 53106  70.1369 176.9169 0007576  97.1713 262.9808  6.42557460 48157
KAI-1 (RS26S)           
1 53378U 22096J   24214.74931953  .00454501  81596-4  13917-2 0  9994
2 53378  97.3874 136.9349 0009223 130.0339 230.1746 15.91814309111429
CAS-5A (FO-118)         
1 54684U 22167C   24214.86804266  .00038930  00000+0  12109-2 0  9995
2 54684  97.6089   0.8861 0009004 344.1230  15.9728 15.33174304 91295
STRATOSAT-TK 1 (RS52S)  
1 57167U 23091B   24214.84845451  .00020983  00000+0  11542-2 0  9999
2 57167  97.6085 267.8362 0013260 324.8198  35.2156 15.14015082 60469
UMKA 1 (RS40S)          
1 57172U 23091G   24214.85458656  .00007257  00000+0  47162-3 0  9990
2 57172  97.6091 266.4498 0015413 330.3265  29.7088 15.08220629 60376
CUBESX-HSE 3 (RS42S)    
1 57178U 23091N   24214.89790051  .00012206  00000+0  75551-3 0  9991
2 57178  97.6128 267.0430 0015690 322.4001  37.6129 15.09848728 60408
MONITOR-4 (RS57S)       
1 57182U 23091S   24214.83442502  .00011207  00000+0  70439-3 0  9995
2 57182  97.6113 266.7590 0016106 324.0015  36.0128 15.09306251 60385
MONITOR-2 (RS39S)       
1 57184U 23091U   24214.81649773  .00006807  00000+0  44275-3 0  9993
2 57184  97.6127 266.8104 0012705 319.7194  40.3092 15.08240872 60387
SVYATOBOR 1 (RS60S)     
1 57187U 23091X   24214.85593160  .00009189  00000+0  56854-3 0  9990
2 57187  97.6123 267.3793 0011967 315.4954  44.5313 15.09985701 60427
VIZARD-METEO (RS38S)    
1 57189U 23091Z   24214.83314029  .00013106  00000+0  77451-3 0  9995
2 57189  97.6117 267.8310 0010864 311.8806  48.1496 15.11568988 60455
NANOZOND 1 (RS49S)      
1 57190U 23091AA  24214.81876973  .00018614  00000+0  10109-2 0  9991
2 57190  97.6093 268.4835 0008967 316.1515  43.9004 15.14536883 60501
POLYTECH-UNIVERSE 3 (R*)
1 57191U 23091AB  24214.82263847  .00007659  00000+0  49721-3 0  9993
2 57191  97.6092 266.4778 0018436 336.0265  24.0103 15.08199963 60372
UTMN 2 (RS27S)          
1 57203U 23091AP  24214.83978456  .00012490  00000+0  74987-3 0  9998
2 57203  97.6114 267.6655 0011266 312.4145  47.6131 15.11004950 60442
ARCCUBE 1 (RS25S)       
1 57205U 23091AR  24214.82571681  .00022167  00000+0  11573-2 0  9991
2 57205  97.6061 268.6650 0008994 316.3773  43.6748 15.15898465 60520
KUZGTU 1 (RS47S)        
1 57217U 23091AV  24214.91115840  .00011174  00000+0  69530-3 0  9998
2 57217  97.6099 266.8965 0015613 323.9518  36.0657 15.09679249 60402
HADES-D (SO-121)        
1 58567U 23174CY  24214.70123650  .00083909  00000+0  24075-2 0  9993
2 58567  97.4508 290.7371 0009430  75.6580 284.5709 15.35504849 40757
CUTE-1 (CO-55)          
1 27844U 03031E   24214.50345272  .00000717  00000+0  33561-3 0  9998
2 27844  98.6778 220.9030 0010141  20.7785 339.3804 14.23342650 94232
CUBESAT XI-IV (CO-57)   
1 27848U 03031J   24214.45558155  .00000686  00000+0  32508-3 0  9997
2 27848  98.6808 221.0749 0010337  36.1375 324.0499 14.22773183 93971
CUBESAT XI-V            
1 28895U 05043F   24214.57163932  .00003276  00000+0  57933-3 0  9990
2 28895  98.2069 350.4842 0015064 210.3954 149.6378 14.68001226  1115
CUTE-1.7+APD II (CO-65) 
1 32785U 08021C   24214.53408967  .00007737  00000+0  66961-3 0  9995
2 32785  97.7579 179.5079 0011521 162.5102 197.6519 14.97380007882337
AAUSAT-II               
1 32788U 08021F   24214.44229608  .00044666  00000+0  20714-2 0  9998
2 32788  97.5952 194.8926 0005922  49.5719 310.6031 15.19897173885195
CANX-2                  
1 32790U 08021H   24214.44455693  .00008303  00000+0  74766-3 0  9991
2 32790  97.7688 178.1308 0012222 174.6227 185.5127 14.95802344882135
SEEDS II (CO-66)        
1 32791U 08021J   24214.56315815  .00012749  00000+0  90310-3 0  9998
2 32791  97.6917 185.5181 0007100 136.8823 223.2961 15.04925705883340
SWISSCUBE               
1 35932U 09051B   24214.62662761  .00002015  00000+0  43682-3 0  9999
2 35932  98.4652  98.8395 0007292 167.2458 192.8927 14.59278685789189
BEESAT-1                
1 35933U 09051C   24214.64017137  .00001756  00000+0  38441-3 0  9991
2 35933  98.4580  99.7027 0005361 177.0188 183.1043 14.58985352789251
ITUPSAT1                
1 35935U 09051E   24214.61891168  .00001597  00000+0  35855-3 0  9993
2 35935  98.4676  99.4413 0007422 188.2751 171.8326 14.57926955788884
TISAT 1                 
1 36799U 10035E   24214.74791159  .00012301  00000+0  90503-3 0  9995
2 36799  98.0847 106.1808 0006816  84.3484 275.8517 15.03523191764101
AEROCUBE 4.5A           
1 38767U 12048K   24214.25349052  .00033766  00000+0  17084-2 0  9995
2 38767  64.6581 169.1534 0110943   2.8888 357.2848 15.11586582267277
AEROCUBE 4.5B           
1 38768U 12048L   24214.89467842  .00042786  00000+0  13609-2 0  9995
2 38768  64.6544  88.7709 0086434 349.3600  10.5696 15.28737085268405
STRAND-1                
1 39090U 13009E   24214.77310497  .00000707  00000+0  25715-3 0  9991
2 39090  98.3818  41.8056 0009991 113.6336 246.5901 14.36150679598804
BRITE-AUSTRIA           
1 39091U 13009F   24214.75803323  .00000465  00000+0  17491-3 0  9998
2 39091  98.3863  41.0646 0011395 120.5803 239.6509 14.35859546598815
NEE-01 PEGASO           
1 39151U 13018B   24214.86644756  .00005357  00000+0  61516-3 0  9992
2 39151  98.0402 332.4478 0013747 248.5555 111.4194 14.86205692608762
ESTCUBE 1               
1 39161U 13021C   24214.81226769  .00003696  00000+0  53441-3 0  9994
2 39161  97.8264 279.8893 0010316  85.1946 275.0442 14.76715420603862
POPACS 1                
1 39268U 13055D   24214.43135072  .00047640  00000+0  79831-3 0  9991
2 39268  80.9805  99.1769 0390288 307.0002  49.6080 14.96809258567291
POPACS 2                
1 39269U 13055E   24214.36960844  .00021582  00000+0  49229-3 0  9992
2 39269  81.0011 190.2481 0544962 184.7612 174.8290 14.58360679562188
POPACS 3                
1 39270U 13055F   24214.49584116  .00012209  00000+0  33365-3 0  9992
2 39270  81.0059 242.3219 0621840 330.7872  25.9813 14.38366203539472
ZACUBE-1 (TSHEPISOSAT)  
1 39417U 13066B   24214.46407145  .00010944  00000+0  11163-2 0  9995
2 39417  97.7353 169.4383 0050342  13.0991 347.1520 14.89871355578329
WNISAT-1                
1 39423U 13066H   24214.53405614  .00001771  00000+0  34597-3 0  9994
2 39423  97.6701  45.1871 0168578 226.5888 132.1175 14.55408238567034
TRITON-1                
1 39427U 13066M   24214.86055985  .00005577  00000+0  77902-3 0  9991
2 39427  97.8389 131.3852 0100240 295.5320  63.5550 14.74597136573137
DELFI-N3XT              
1 39428U 13066N   24214.74429140  .00010332  00000+0  12932-2 0  9993
2 39428  97.8354 131.8966 0097601 301.5770  57.5941 14.79097577573006
GOMX-1                  
1 39430U 13066Q   24214.90108448  .00003952  00000+0  65310-3 0  9998
2 39430  97.7269  86.5132 0140885 107.2804 254.3871 14.64466565569731
CUBEBUG-2 (LO-74)       
1 39440U 13066AA  24214.56729052  .00005621  00000+0  65469-3 0  9991
2 39440  97.8133 157.2748 0070847 124.9460 235.8436 14.83832548575069
NEE-02 KRYSAOR          
1 39441U 13066AB  24214.79615521  .00003488  00000+0  44154-3 0  9999
2 39441  97.8226 153.1950 0074865 146.5276 214.0701 14.80461342575849
FUNCUBE-1 (AO-73)       
1 39444U 13066AE  24214.86949135  .00011219  00000+0  10623-2 0  9995
2 39444  97.7204 173.0811 0046770 351.7863   8.2586 14.92952952577515
UWE-3                   
1 39446U 13066AG  24214.55813893  .00007511  00000+0  82335-3 0  9994
2 39446  97.7822 163.3456 0061746  71.1913 289.5987 14.86614924575445
BRITE-CA1 (TORONTO)     
1 40020U 14033L   24214.84507202  .00001631  00000+0  26915-3 0  9994
2 40020  97.8831 350.3793 0081751 306.9062  52.4673 14.69612091541682
DUCHIFAT-1              
1 40021U 14033M   24214.48192262  .00018345  00000+0  11703-2 0  9999
2 40021  98.0919 200.6907 0010105 314.0053  46.0340 15.08716986550954
NANOSATC-BR1            
1 40024U 14033Q   24214.45278350  .00018899  00000+0  13528-2 0  9993
2 40024  98.0661 188.4757 0007243  41.3502 318.8269 15.04449743550056
